ONEWEB-0350             
1 49214U 21083AE  25359.96901657  .00000158  00000+0  39823-3 0  9992
2 49214  87.8981 354.6469 0001486  94.8717 265.2582 13.13471415208195
ONEWEB-0351             
1 49215U 21083AF  25359.92766129 -.00000039  00000+0 -12777-3 0  9991
2 49215  87.9214 308.9930 0001655  49.4189 310.7088 13.20769931213901
ONEWEB-0352             
1 49216U 21083AG  25359.94954611 -.00000135  00000+0 -40455-3 0  9990
2 49216  87.8971 354.6724 0001627  75.8203 284.3107 13.13468576208285
ONEWEB-0354             
1 49217U 21083AH  25359.87729004  .00000055  00000+0  10427-3 0  9994
2 49217  87.9218 309.0020 0001633  86.9994 273.1326 13.20771353213936
ONEWEB-0355             
1 49218U 21083AJ  25359.97846963  .00000393  00000+0  10408-2 0  9993
2 49218  87.8970 354.6800 0001546  85.9935 274.1371 13.13468721208164
ONEWEB-0357             
1 49219U 21083AK  25359.87413310 -.00000181  00000+0 -47685-3 0  9994
2 49219  87.9219 308.9986 0001648  76.1688 283.9629 13.20770894213939
ONEWEB-0332             
1 49279U 21090A   25359.89843901  .00000276  00000+0  71127-3 0  9994
2 49279  87.8996 324.2417 0001909  75.2324 284.9017 13.14504150204815
ONEWEB-0347             
1 49280U 21090B   25359.86467189  .00000098  00000+0  20788-3 0  9992
2 49280  87.9212 309.0097 0002085  76.9618 283.1748 13.20770876208165
